TERRASAR-X              
1 31698U 07026A   26061.55096637  .00001962  00000+0  96617-4 0  9998
2 31698  97.4467  70.7747 0001802  76.7712 283.3724 15.19148840 37032
WORLDVIEW-1 (WV-1)      
1 32060U 07041A   26061.87569012  .00010177  00000+0  41801-3 0  9998
2 32060  97.3826 183.1550 0002825 154.6258 205.5118 15.24385613 26681
YAOGAN-3                
1 32289U 07055A   26062.19647278  .00001088  00000+0  11768-3 0  9993
2 32289  97.8281  93.0910 0001711  85.4306 274.7107 14.90321208990072
COSMO-SKYMED 2          
1 32376U 07059A   26062.16951247  .00000683  00000+0  92347-4 0  9998
2 32376  97.8859 247.3001 0001312  82.9143 277.2219 14.82155356986294
RADARSAT-2              
1 32382U 07061A   26062.17186512  .00000068  00000+0  43376-4 0  9999
2 32382  98.5811  70.6047 0001177  84.6122 275.5195 14.29981176950809
CARTOSAT-2A             
1 32783U 08021A   26062.17914983  .00001344  00000+0  18810-3 0  9994
2 32783  97.7796 114.4416 0013264  95.4108 264.8617 14.79087143963134
HUANJING 1A (HJ-1A)     
1 33320U 08041A   26062.22841764  .00001478  00000+0  18444-3 0  9997
2 33320  97.6619  52.2229 0020301 123.2658 237.0505 14.83692133942698
HUANJING 1B (HJ-1B)     
1 33321U 08041B   26062.21901941  .00002040  00000+0  25393-3 0  9998
2 33321  97.6468  55.6948 0036541 168.7297 191.4744 14.83085165942703
GEOEYE 1                
1 33331U 08042A   26062.19705073  .00000643  00000+0  12953-3 0  9990
2 33331  98.1218 137.4683 0004378  45.5705 314.5856 14.64757199934634
THEOS                   
1 33396U 08049A   26062.14363999  .00000200  00000+0  11363-3 0  9993
2 33396  98.5723 122.8092 0001003  89.9812 270.1480 14.20116056902914
COSMO-SKYMED 3          
1 33412U 08054A   26062.14274497  .00006344  00000+0  43657-3 0  9998
2 33412  97.8423 278.9170 0014801 266.3390  93.6144 15.06174756940973
YAOGAN-4                
1 33446U 08061A   26061.77020872  .00001661  00000+0  21090-3 0  9991
2 33446  97.9243 356.1272 0015697  60.0888 300.1883 14.82952036929890
GOSAT (IBUKI)           
1 33492U 09002A   26062.18348885  .00000262  00000+0  54639-4 0  9993
2 33492  98.0766 174.6675 0001439  87.0333 273.1036 14.67545520915912
DEIMOS-1                
1 35681U 09041A   26062.16845706  .00001048  00000+0  16245-3 0  9993
2 35681  97.7237 224.0753 0001937 128.1514 231.9870 14.75103118891251
DUBAISAT-1              
1 35682U 09041B   26061.92448081  .00001519  00000+0  23376-3 0  9998
2 35682  97.9862 196.4675 0011429  56.4762 303.7537 14.74882983889436
OCEANSAT-2              
1 35931U 09051A   26062.18525087  .00000010  00000+0  32608-4 0  9991
2 35931  98.2270  59.6520 0016948 170.5197 189.6293 13.99635782864500
WORLDVIEW-2 (WV-2)      
1 35946U 09055A   26062.18579426  .00000163  00000+0  68395-4 0  9998
2 35946  98.4705 137.1439 0004695 162.4680 197.6670 14.37907184860410
