[{"OBJECT_NAME":"TERRASAR-X","OBJECT_ID":"2007-026A","EPOCH":"2026-03-02T13:13:23.494368","MEAN_MOTION":15.1914884,"ECCENTRICITY":0.0001802,"INCLINATION":97.4467,"RA_OF_ASC_NODE":70.7747,"ARG_OF_PERICENTER":76.7712,"MEAN_ANOMALY":283.3724,"EPHEMERIS_TYPE":0,"CLASSIFICATION_TYPE":"U","NORAD_CAT_ID":31698,"ELEMENT_SET_NO":999,"REV_AT_EPOCH":3703,"BSTAR":9.6617e-5,"MEAN_MOTION_DOT":1.962e-5,"MEAN_MOTION_DDOT":0},{"OBJECT_NAME":"WORLDVIEW-1 (WV-1)","OBJECT_ID":"2007-041A","EPOCH":"2026-03-02T21:00:59.626368","MEAN_MOTION":15.24385613,"ECCENTRICITY":0.0002825,"INCLINATION":97.3826,"RA_OF_ASC_NODE":183.155,"ARG_OF_PERICENTER":154.6258,"MEAN_ANOMALY":205.5118,"EPHEMERIS_TYPE":0,"CLASSIFICATION_TYPE":"U","NORAD_CAT_ID":32060,"ELEMENT_SET_NO":999,"REV_AT_EPOCH":2668,"BSTAR":0.00041801,"MEAN_MOTION_DOT":0.00010177,"MEAN_MOTION_DDOT":0},{"OBJECT_NAME":"YAOGAN-3","OBJECT_ID":"2007-055A","EPOCH":"2026-03-03T04:42:55.248192","MEAN_MOTION":14.90321208,"ECCENTRICITY":0.0001711,"INCLINATION":97.8281,"RA_OF_ASC_NODE":93.091,"ARG_OF_PERICENTER":85.4306,"MEAN_ANOMALY":274.7107,"EPHEMERIS_TYPE":0,"CLASSIFICATION_TYPE":"U","NORAD_CAT_ID":32289,"ELEMENT_SET_NO":999,"REV_AT_EPOCH":99007,"BSTAR":0.00011768,"MEAN_MOTION_DOT":1.088e-5,"MEAN_MOTION_DDOT":0},{"OBJECT_NAME":"COSMO-SKYMED 2","OBJECT_ID":"2007-059A","EPOCH":"2026-03-03T04:04:05.877408","MEAN_MOTION":14.82155356,"ECCENTRICITY":0.0001312,"INCLINATION":97.8859,"RA_OF_ASC_NODE":247.3001,"ARG_OF_PERICENTER":82.9143,"MEAN_ANOMALY":277.2219,"EPHEMERIS_TYPE":0,"CLASSIFICATION_TYPE":"U","NORAD_CAT_ID":32376,"ELEMENT_SET_NO":999,"REV_AT_EPOCH":98629,"BSTAR":9.2347e-5,"MEAN_MOTION_DOT":6.83e-6,"MEAN_MOTION_DDOT":0},{"OBJECT_NAME":"RADARSAT-2","OBJECT_ID":"2007-061A","EPOCH":"2026-03-03T04:07:29.146368","MEAN_MOTION":14.29981176,"ECCENTRICITY":0.0001177,"INCLINATION":98.5811,"RA_OF_ASC_NODE":70.6047,"ARG_OF_PERICENTER":84.6122,"MEAN_ANOMALY":275.5195,"EPHEMERIS_TYPE":0,"CLASSIFICATION_TYPE":"U","NORAD_CAT_ID":32382,"ELEMENT_SET_NO":999,"REV_AT_EPOCH":95080,"BSTAR":4.3376e-5,"MEAN_MOTION_DOT":6.8e-7,"MEAN_MOTION_DDOT":0},{"OBJECT_NAME":"CARTOSAT-2A","OBJECT_ID":"2008-021A","EPOCH":"2026-03-03T04:17:58.545312","MEAN_MOTION":14.79087143,"ECCENTRICITY":0.0013264,"INCLINATION":97.7796,"RA_OF_ASC_NODE":114.4416,"ARG_OF_PERICENTER":95.4108,"MEAN_ANOMALY":264.8617,"EPHEMERIS_TYPE":0,"CLASSIFICATION_TYPE":"U","NORAD_CAT_ID":32783,"ELEMENT_SET_NO":999,"REV_AT_EPOCH":96313,"BSTAR":0.0001881,"MEAN_MOTION_DOT":1.344e-5,"MEAN_MOTION_DDOT":0},{"OBJECT_NAME":"HUANJING 1A (HJ-1A)","OBJECT_ID":"2008-041A","EPOCH":"2026-03-03T05:28:55.284096","MEAN_MOTION":14.83692133,"ECCENTRICITY":0.0020301,"INCLINATION":97.6619,"RA_OF_ASC_NODE":52.2229,"ARG_OF_PERICENTER":123.2658,"MEAN_ANOMALY":237.0505,"EPHEMERIS_TYPE":0,"CLASSIFICATION_TYPE":"U","NORAD_CAT_ID":33320,"ELEMENT_SET_NO":999,"REV_AT_EPOCH":94269,"BSTAR":0.00018444,"MEAN_MOTION_DOT":1.478e-5,"MEAN_MOTION_DDOT":0},{"OBJECT_NAME":"HUANJING 1B (HJ-1B)","OBJECT_ID":"2008-041B","EPOCH":"2026-03-03T05:15:23.277024","MEAN_MOTION":14.83085165,"ECCENTRICITY":0.0036541,"INCLINATION":97.6468,"RA_OF_ASC_NODE":55.6948,"ARG_OF_PERICENTER":168.7297,"MEAN_ANOMALY":191.4744,"EPHEMERIS_TYPE":0,"CLASSIFICATION_TYPE":"U","NORAD_CAT_ID":33321,"ELEMENT_SET_NO":999,"REV_AT_EPOCH":94270,"BSTAR":0.00025393,"MEAN_MOTION_DOT":2.04e-5,"MEAN_MOTION_DDOT":0},{"OBJECT_NAME":"GEOEYE 1","OBJECT_ID":"2008-042A","EPOCH":"2026-03-03T04:43:45.183072","MEAN_MOTION":14.64757199,"ECCENTRICITY":0.0004378,"INCLINATION":98.1218,"RA_OF_ASC_NODE":137.4683,"ARG_OF_PERICENTER":45.5705,"MEAN_ANOMALY":314.5856,"EPHEMERIS_TYPE":0,"CLASSIFICATION_TYPE":"U","NORAD_CAT_ID":33331,"ELEMENT_SET_NO":999,"REV_AT_EPOCH":93463,"BSTAR":0.00012953,"MEAN_MOTION_DOT":6.43e-6,"MEAN_MOTION_DDOT":0},{"OBJECT_NAME":"THEOS","OBJECT_ID":"2008-049A","EPOCH":"2026-03-03T03:26:50.495136","MEAN_MOTION":14.20116056,"ECCENTRICITY":0.0001003,"INCLINATION":98.5723,"RA_OF_ASC_NODE":122.8092,"ARG_OF_PERICENTER":89.9812,"MEAN_ANOMALY":270.148,"EPHEMERIS_TYPE":0,"CLASSIFICATION_TYPE":"U","NORAD_CAT_ID":33396,"ELEMENT_SET_NO":999,"REV_AT_EPOCH":90291,"BSTAR":0.00011363,"MEAN_MOTION_DOT":2.0e-6,"MEAN_MOTION_DDOT":0},{"OBJECT_NAME":"COSMO-SKYMED 3","OBJECT_ID":"2008-054A","EPOCH":"2026-03-03T03:25:33.165408","MEAN_MOTION":15.06174756,"ECCENTRICITY":0.0014801,"INCLINATION":97.8423,"RA_OF_ASC_NODE":278.917,"ARG_OF_PERICENTER":266.339,"MEAN_ANOMALY":93.6144,"EPHEMERIS_TYPE":0,"CLASSIFICATION_TYPE":"U","NORAD_CAT_ID":33412,"ELEMENT_SET_NO":999,"REV_AT_EPOCH":94097,"BSTAR":0.00043657,"MEAN_MOTION_DOT":6.344e-5,"MEAN_MOTION_DDOT":0},{"OBJECT_NAME":"YAOGAN-4","OBJECT_ID":"2008-061A","EPOCH":"2026-03-02T18:29:06.033408","MEAN_MOTION":14.82952036,"ECCENTRICITY":0.00156975,"INCLINATION":97.9243,"RA_OF_ASC_NODE":356.1272,"ARG_OF_PERICENTER":60.0888,"MEAN_ANOMALY":300.1883,"EPHEMERIS_TYPE":0,"CLASSIFICATION_TYPE":"U","NORAD_CAT_ID":33446,"ELEMENT_SET_NO":999,"REV_AT_EPOCH":92989,"BSTAR":0.00021090046,"MEAN_MOTION_DOT":1.661e-5,"MEAN_MOTION_DDOT":0},{"OBJECT_NAME":"GOSAT (IBUKI)","OBJECT_ID":"2009-002A","EPOCH":"2026-03-03T04:24:13.436640","MEAN_MOTION":14.6754552,"ECCENTRICITY":0.0001439,"INCLINATION":98.0766,"RA_OF_ASC_NODE":174.6675,"ARG_OF_PERICENTER":87.0333,"MEAN_ANOMALY":273.1036,"EPHEMERIS_TYPE":0,"CLASSIFICATION_TYPE":"U","NORAD_CAT_ID":33492,"ELEMENT_SET_NO":999,"REV_AT_EPOCH":91591,"BSTAR":5.4639e-5,"MEAN_MOTION_DOT":2.62e-6,"MEAN_MOTION_DDOT":0},{"OBJECT_NAME":"DEIMOS-1","OBJECT_ID":"2009-041A","EPOCH":"2026-03-03T04:02:34.689984","MEAN_MOTION":14.75103118,"ECCENTRICITY":0.0001937,"INCLINATION":97.7237,"RA_OF_ASC_NODE":224.0753,"ARG_OF_PERICENTER":128.1514,"MEAN_ANOMALY":231.987,"EPHEMERIS_TYPE":0,"CLASSIFICATION_TYPE":"U","NORAD_CAT_ID":35681,"ELEMENT_SET_NO":999,"REV_AT_EPOCH":89125,"BSTAR":0.00016245,"MEAN_MOTION_DOT":1.048e-5,"MEAN_MOTION_DDOT":0},{"OBJECT_NAME":"DUBAISAT-1","OBJECT_ID":"2009-041B","EPOCH":"2026-03-02T22:11:15.141984","MEAN_MOTION":14.74882983,"ECCENTRICITY":0.0011429,"INCLINATION":97.9862,"RA_OF_ASC_NODE":196.4675,"ARG_OF_PERICENTER":56.4762,"MEAN_ANOMALY":303.7537,"EPHEMERIS_TYPE":0,"CLASSIFICATION_TYPE":"U","NORAD_CAT_ID":35682,"ELEMENT_SET_NO":999,"REV_AT_EPOCH":88943,"BSTAR":0.00023376,"MEAN_MOTION_DOT":1.519e-5,"MEAN_MOTION_DDOT":0},{"OBJECT_NAME":"OCEANSAT-2","OBJECT_ID":"2009-051A","EPOCH":"2026-03-03T04:26:45.675168","MEAN_MOTION":13.99635782,"ECCENTRICITY":0.0016948,"INCLINATION":98.227,"RA_OF_ASC_NODE":59.652,"ARG_OF_PERICENTER":170.5197,"MEAN_ANOMALY":189.6293,"EPHEMERIS_TYPE":0,"CLASSIFICATION_TYPE":"U","NORAD_CAT_ID":35931,"ELEMENT_SET_NO":999,"REV_AT_EPOCH":86450,"BSTAR":3.2608e-5,"MEAN_MOTION_DOT":1.0e-7,"MEAN_MOTION_DDOT":0},{"OBJECT_NAME":"WORLDVIEW-2 (WV-2)","OBJECT_ID":"2009-055A","EPOCH":"2026-03-03T04:27:32.624064","MEAN_MOTION":14.37907184,"ECCENTRICITY":0.0004695,"INCLINATION":98.4705,"RA_OF_ASC_NODE":137.1439,"ARG_OF_PERICENTER":162.468,"MEAN_ANOMALY":197.667,"EPHEMERIS_TYPE":0,"CLASSIFICATION_TYPE":"U","NORAD_CAT_ID":35946,"ELEMENT_SET_NO":999,"REV_AT_EPOCH":86041,"BSTAR":6.8395e-5,"MEAN_MOTION_DOT":1.63e-6,"MEAN_MOTION_DDOT":0}]
